start=new Date('2022-10-16T00:00:00.000Z').valueOf();
sats=[{"RCS_SIZE":"MEDIUM","CENTER_NAME":"EARTH","LAUNCH_DATE":"2021-03-04","OBJECT_TYPE":"PAYLOAD","COUNTRY_CODE":"US","TIME_SYSTEM":"UTC","PERIAPSIS":"546.103","OBJECT_NAME":"STARLINK-2169","TLE_LINE1":"1 47752U 21017AG  22288.56624909  .00001870  00000-0  14441-3 0  9992","REF_FRAME":"TEME","TLE_LINE2":"2 47752  53.0564  18.2391 0001618  78.5321 281.5849 15.06396636 90782","DECAY_DATE":null,"REV_AT_EPOCH":"9078","ELEMENT_SET_NO":"999","OBJECT_ID":"2021-017AG","BSTAR":"0.00014441000000","MEAN_MOTION_DDOT":"0.0000000000000","NORAD_CAT_ID":"47752","GP_ID":"215246039","MEAN_MOTION":"15.06396636","MEAN_ELEMENT_THEORY":"SGP4","INCLINATION":"53.0564","ARG_OF_PERICENTER":"78.5321","MEAN_MOTION_DOT":"0.00001870","SITE":"AFETR","EPOCH":"2022-10-15T13:35:23.921376","APOAPSIS":"548.344","PERIOD":"95.592","CLASSIFICATION_TYPE":"U","ECCENTRICITY":"0.00016180","FILE":"3615679","MEAN_ANOMALY":"281.5849","RA_OF_ASC_NODE":"18.2391","SEMIMAJOR_AXIS":"6925.359","EPHEMERIS_TYPE":"0"},{"SITE":"AFETR","ARG_OF_PERICENTER":"51.0355","MEAN_MOTION_DOT":"0.00002208","EPOCH":"2022-10-15T16:11:18.483936","APOAPSIS":"548.449","PERIOD":"95.592","CLASSIFICATION_TYPE":"U","ECCENTRICITY":"0.00018200","SEMIMAJOR_AXIS":"6925.323","EPHEMERIS_TYPE":"0","FILE":"3615679","MEAN_ANOMALY":"309.0796","RA_OF_ASC_NODE":"22.7630","LAUNCH_DATE":"2021-03-04","OBJECT_TYPE":"PAYLOAD","RCS_SIZE":"LARGE","CENTER_NAME":"EARTH","TLE_LINE1":"1 47753U 21017AH  22288.67451949  .00002208  00000-0  16706-3 0  9999","OBJECT_NAME":"STARLINK-2170","TLE_LINE2":"2 47753  53.0557  22.7630 0001820  51.0355 309.0796 15.06408262 90729","REF_FRAME":"TEME","DECAY_DATE":null,"REV_AT_EPOCH":"9072","COUNTRY_CODE":"US","PERIAPSIS":"545.928","TIME_SYSTEM":"UTC","MEAN_MOTION_DDOT":"0.0000000000000","BSTAR":"0.00016706000000","NORAD_CAT_ID":"47753","ELEMENT_SET_NO":"999","OBJECT_ID":"2021-017AH","MEAN_ELEMENT_THEORY":"SGP4","INCLINATION":"53.0557","GP_ID":"215247291","MEAN_MOTION":"15.06408262"},{"CLASSIFICATION_TYPE":"U","PERIOD":"95.592","ECCENTRICITY":"0.00018420","APOAPSIS":"548.472","EPHEMERIS_TYPE":"0","SEMIMAJOR_AXIS":"6925.332","RA_OF_ASC_NODE":"23.1863","MEAN_ANOMALY":"303.6071","FILE":"3615679","SITE":"AFETR","MEAN_MOTION_DOT":"0.00001582","ARG_OF_PERICENTER":"56.5093","EPOCH":"2022-10-15T13:53:18.113568","NORAD_CAT_ID":"47754","BSTAR":"0.00012506000000","MEAN_MOTION_DDOT":"0.0000000000000","OBJECT_ID":"2021-017AJ","ELEMENT_SET_NO":"999","INCLINATION":"53.0541","MEAN_ELEMENT_THEORY":"SGP4","MEAN_MOTION":"15.06405516","GP_ID":"215247542","OBJECT_TYPE":"PAYLOAD","LAUNCH_DATE":"2021-03-04","CENTER_NAME":"EARTH","RCS_SIZE":"LARGE","REV_AT_EPOCH":"9067","DECAY_DATE":null,"TLE_LINE2":"2 47754  53.0541  23.1863 0001842  56.5093 303.6071 15.06405516 90678","REF_FRAME":"TEME","TLE_LINE1":"1 47754U 21017AJ  22288.57868187  .00001582  00000-0  12506-3 0  9993","OBJECT_NAME":"STARLINK-2171","TIME_SYSTEM":"UTC","PERIAPSIS":"545.921","COUNTRY_CODE":"US"},{"LAUNCH_DATE":"2021-03-04","OBJECT_TYPE":"PAYLOAD","RCS_SIZE":"LARGE","CENTER_NAME":"EARTH","TLE_LINE1":"1 47756U 21017AL  22288.64135630 -.00000405  00000-0 -82978-5 0  9990","OBJECT_NAME":"STARLINK-2174","REF_FRAME":"TEME","TLE_LINE2":"2 47756  53.0549  22.9095 0001773  51.4224 308.6924 15.06395915 90724","REV_AT_EPOCH":"9072","DECAY_DATE":null,"COUNTRY_CODE":"US","PERIAPSIS":"545.998","TIME_SYSTEM":"UTC","BSTAR":"-0.00000829780000","MEAN_MOTION_DDOT":"0.0000000000000","NORAD_CAT_ID":"47756","ELEMENT_SET_NO":"999","OBJECT_ID":"2021-017AL","MEAN_ELEMENT_THEORY":"SGP4","INCLINATION":"53.0549","GP_ID":"215246290","MEAN_MOTION":"15.06395915","SITE":"AFETR","ARG_OF_PERICENTER":"51.4224","MEAN_MOTION_DOT":"-0.00000405","EPOCH":"2022-10-15T15:23:33.184320","APOAPSIS":"548.454","PERIOD":"95.592","CLASSIFICATION_TYPE":"U","ECCENTRICITY":"0.00017730","SEMIMAJOR_AXIS":"6925.361","EPHEMERIS_TYPE":"0","FILE":"3615679","MEAN_ANOMALY":"308.6924","RA_OF_ASC_NODE":"22.9095"},{"SEMIMAJOR_AXIS":"6925.340","EPHEMERIS_TYPE":"0","FILE":"3615679","MEAN_ANOMALY":"307.5600","RA_OF_ASC_NODE":"22.6631","APOAPSIS":"548.396","PERIOD":"95.592","CLASSIFICATION_TYPE":"U","ECCENTRICITY":"0.00017200","EPOCH":"2022-10-15T16:37:51.758688","SITE":"AFETR","ARG_OF_PERICENTER":"52.5545","MEAN_MOTION_DOT":"0.00000128","MEAN_ELEMENT_THEORY":"SGP4","INCLINATION":"53.0543","GP_ID":"215246540","MEAN_MOTION":"15.06402794","MEAN_MOTION_DDOT":"0.0000000000000","BSTAR":"0.00002749400000","NORAD_CAT_ID":"47757","ELEMENT_SET_NO":"999","OBJECT_ID":"2021-017AM","TLE_LINE1":"1 47757U 21017AM  22288.69296017  .00000128  00000-0  27494-4 0  9994","OBJECT_NAME":"STARLINK-2175","REF_FRAME":"TEME","TLE_LINE2":"2 47757  53.0543  22.6631 0001720  52.5545 307.5600 15.06402794 90679","DECAY_DATE":null,"REV_AT_EPOCH":"9067","COUNTRY_CODE":"US","PERIAPSIS":"546.014","TIME_SYSTEM":"UTC","LAUNCH_DATE":"2021-03-04","OBJECT_TYPE":"PAYLOAD","CENTER_NAME":"EARTH","RCS_SIZE":"LARGE"},{"APOAPSIS":"548.358","PERIOD":"95.592","CLASSIFICATION_TYPE":"U","ECCENTRICITY":"0.00016280","EPHEMERIS_TYPE":"0","SEMIMAJOR_AXIS":"6925.365","FILE":"3615679","RA_OF_ASC_NODE":"32.8294","MEAN_ANOMALY":"303.3691","SITE":"AFETR","MEAN_MOTION_DOT":"0.00001240","ARG_OF_PERICENTER":"56.7453","EPOCH":"2022-10-15T15:48:45.984384","NORAD_CAT_ID":"47760","MEAN_MOTION_DDOT":"0.0000000000000","BSTAR":"0.00010217000000","ELEMENT_SET_NO":"999","OBJECT_ID":"2021-017AQ","MEAN_ELEMENT_THEORY":"SGP4","INCLINATION":"53.0557","MEAN_MOTION":"15.06394501","GP_ID":"215246791","LAUNCH_DATE":"2021-03-04","OBJECT_TYPE":"PAYLOAD","CENTER_NAME":"EARTH","RCS_SIZE":"LARGE","OBJECT_NAME":"STARLINK-2178","TLE_LINE1":"1 47760U 21017AQ  22288.65886556  .00001240  00000-0  10217-3 0  9997","DECAY_DATE":null,"REV_AT_EPOCH":"9056","TLE_LINE2":"2 47760  53.0557  32.8294 0001628  56.7453 303.3691 15.06394501 90565","REF_FRAME":"TEME","COUNTRY_CODE":"US","PERIAPSIS":"546.103","TIME_SYSTEM":"UTC"},{"OBJECT_ID":"2021-017AR","ELEMENT_SET_NO":"999","NORAD_CAT_ID":"47761","BSTAR":"0.00008180900000","MEAN_MOTION_DDOT":"0.0000000000000","MEAN_MOTION":"15.06408864","GP_ID":"215247042","INCLINATION":"53.0553","MEAN_ELEMENT_THEORY":"SGP4","CENTER_NAME":"EARTH","RCS_SIZE":"LARGE","OBJECT_TYPE":"PAYLOAD","LAUNCH_DATE":"2021-03-04","PERIAPSIS":"546.228","TIME_SYSTEM":"UTC","COUNTRY_CODE":"US","DECAY_DATE":null,"REV_AT_EPOCH":"9066","TLE_LINE2":"2 47761  53.0553  23.2835 0001384  86.4656 273.6491 15.06408864 90667","REF_FRAME":"TEME","TLE_LINE1":"1 47761U 21017AR  22288.55657063  .00000938  00000-0  81809-4 0  9995","OBJECT_NAME":"STARLINK-2179","PERIOD":"95.592","CLASSIFICATION_TYPE":"U","ECCENTRICITY":"0.00013840","APOAPSIS":"548.145","RA_OF_ASC_NODE":"23.2835","MEAN_ANOMALY":"273.6491","FILE":"3615679","EPHEMERIS_TYPE":"0","SEMIMAJOR_AXIS":"6925.321","MEAN_MOTION_DOT":"0.00000938","ARG_OF_PERICENTER":"86.4656","SITE":"AFETR","EPOCH":"2022-10-15T13:21:27.702432"},{"OBJECT_ID":"2021-017AS","ELEMENT_SET_NO":"999","MEAN_MOTION_DDOT":"0.0000000000000","BSTAR":"0.00001193600000","NORAD_CAT_ID":"47762","GP_ID":"215167453","MEAN_MOTION":"15.06400059","INCLINATION":"53.0555","MEAN_ELEMENT_THEORY":"SGP4","CENTER_NAME":"EARTH","RCS_SIZE":"LARGE","OBJECT_TYPE":"PAYLOAD","LAUNCH_DATE":"2021-03-04","PERIAPSIS":"545.928","TIME_SYSTEM":"UTC","COUNTRY_CODE":"US","REF_FRAME":"TEME","TLE_LINE2":"2 47762  53.0555  38.1875 0001856  51.8307 308.2849 15.06400059 89828","REV_AT_EPOCH":"8982","DECAY_DATE":null,"TLE_LINE1":"1 47762U 21017AS  22288.58283674 -.00000104  00000-0  11936-4 0  9992","OBJECT_NAME":"STARLINK-2180","CLASSIFICATION_TYPE":"U","PERIOD":"95.592","ECCENTRICITY":"0.00018560","APOAPSIS":"548.499","MEAN_ANOMALY":"308.2849","RA_OF_ASC_NODE":"38.1875","FILE":"3613913","SEMIMAJOR_AXIS":"6925.348","EPHEMERIS_TYPE":"0","ARG_OF_PERICENTER":"51.8307","MEAN_MOTION_DOT":"-0.00000104","SITE":"AFETR","EPOCH":"2022-10-15T13:59:17.094336"},{"ELEMENT_SET_NO":"999","OBJECT_ID":"2021-017AT","MEAN_MOTION_DDOT":"0.0000000000000","BSTAR":"-0.00006772100000","NORAD_CAT_ID":"47763","GP_ID":"215246040","MEAN_MOTION":"15.06401112","MEAN_ELEMENT_THEORY":"SGP4","INCLINATION":"53.0541","RCS_SIZE":"LARGE","CENTER_NAME":"EARTH","LAUNCH_DATE":"2021-03-04","OBJECT_TYPE":"PAYLOAD","COUNTRY_CODE":"US","TIME_SYSTEM":"UTC","PERIAPSIS":"545.869","OBJECT_NAME":"STARLINK-2181","TLE_LINE1":"1 47763U 21017AT  22288.79753847 -.00001290  00000-0 -67721-4 0  9991","REF_FRAME":"TEME","TLE_LINE2":"2 47763  53.0541  27.2041 0001936  53.4115 306.7052 15.06401112 90622","REV_AT_EPOCH":"9062","DECAY_DATE":null,"APOAPSIS":"548.551","PERIOD":"95.592","CLASSIFICATION_TYPE":"U","ECCENTRICITY":"0.00019360","FILE":"3615679","MEAN_ANOMALY":"306.7052","RA_OF_ASC_NODE":"27.2041","SEMIMAJOR_AXIS":"6925.345","EPHEMERIS_TYPE":"0","ARG_OF_PERICENTER":"53.4115","MEAN_MOTION_DOT":"-0.00001290","SITE":"AFETR","EPOCH":"2022-10-15T19:08:27.323808"},{"OBJECT_ID":"2021-017AU","ELEMENT_SET_NO":"999","NORAD_CAT_ID":"47764","BSTAR":"0.00004674100000","MEAN_MOTION_DDOT":"0.0000000000000","MEAN_MOTION":"15.06400789","GP_ID":"215247292","INCLINATION":"53.0544","MEAN_ELEMENT_THEORY":"SGP4","RCS_SIZE":"LARGE","CENTER_NAME":"EARTH","OBJECT_TYPE":"PAYLOAD","LAUNCH_DATE":"2021-03-04","TIME_SYSTEM":"UTC","PERIAPSIS":"546.455","COUNTRY_CODE":"US","REV_AT_EPOCH":"9052","DECAY_DATE":null,"REF_FRAME":"TEME","TLE_LINE2":"2 47764  53.0544  37.6414 0001092  74.8132 285.2977 15.06400789 90529","TLE_LINE1":"1 47764U 21017AU  22288.70078707  .00000415  00000-0  46741-4 0  9993","OBJECT_NAME":"STARLINK-2182","PERIOD":"95.592","ECCENTRICITY":"0.00010920","CLASSIFICATION_TYPE":"U","APOAPSIS":"547.967","RA_OF_ASC_NODE":"37.6414","MEAN_ANOMALY":"285.2977","FILE":"3615679","EPHEMERIS_TYPE":"0","SEMIMAJOR_AXIS":"6925.346","MEAN_MOTION_DOT":"0.00000415","ARG_OF_PERICENTER":"74.8132","SITE":"AFETR","EPOCH":"2022-10-15T16:49:08.002848"}];
